[{"OBJECT_NAME":"TIANMU-1 09","OBJECT_ID":"2023-101C","EPOCH":"2026-03-09T22:17:34.703232","MEAN_MOTION":15.29080822,"ECCENTRICITY":0.00049013,"INCLINATION":97.267,"RA_OF_ASC_NODE":121.1263,"ARG_OF_PERICENTER":139.4293,"MEAN_ANOMALY":220.7314,"EPHEMERIS_TYPE":0,"CLASSIFICATION_TYPE":"U","NORAD_CAT_ID":57401,"ELEMENT_SET_NO":999,"REV_AT_EPOCH":14647,"BSTAR":0.00030540035,"MEAN_MOTION_DOT":8.553e-5,"MEAN_MOTION_DDOT":0},{"OBJECT_NAME":"STARLINK-34423","OBJECT_ID":"2025-130Y","EPOCH":"2026-03-09T08:10:14.021184","MEAN_MOTION":15.30204972,"ECCENTRICITY":0.00013139,"INCLINATION":53.1589,"RA_OF_ASC_NODE":89.8674,"ARG_OF_PERICENTER":68.6661,"MEAN_ANOMALY":291.448,"EPHEMERIS_TYPE":0,"CLASSIFICATION_TYPE":"U","NORAD_CAT_ID":64460,"ELEMENT_SET_NO":999,"REV_AT_EPOCH":4065,"BSTAR":0.0010239809,"MEAN_MOTION_DOT":0.00030096,"MEAN_MOTION_DDOT":0}]
